ADRAS-J                 
1 58992U 24034A   24275.88657140  .00013338  00000+0  11819-2 0  9994
2 58992  98.2237 253.9241 0044893  59.3480 301.2154 14.95588223 33806
